{"type": "FeatureCollection", "features": [ {"type": "Feature", "properties": {"norad_id": 30295, "name": "FENGYUN 1C DEB", "group": "fengyun-1c-debris", "lat": 28.506376763568536, "lon": 17.09444082285974, "alt_km": 741.8282339165253, "timestamp": "2025-12-25T16:53:14.938742+00:00", "meta": {"OBJECT_NAME": "FENGYUN 1C DEB", "OBJECT_ID": "1999-025ZG", "EPOCH": "2025-12-24T07:20:24.130176", "MEAN_MOTION": 14.25053067, "ECCENTRICITY": 0.00942125, "INCLINATION": 98.5074, "RA_OF_ASC_NODE": 20.402, "ARG_OF_PERICENTER": 49.0333, "MEAN_ANOMALY": 13.2626, "EPHEMERIS_TYPE": 0, "CLASSIFICATION_TYPE": "U", "NORAD_CAT_ID": 30295, "ELEMENT_SET_NO": 999, "REV_AT_EPOCH": 98341, "BSTAR": 0.0001546019, "MEAN_MOTION_DOT": 3.37e-06, "MEAN_MOTION_DDOT": 0}, "tle": {"line1": "1 30295U 99025ZG  25358.30583484  .00000337  00000+0  15460-3 0  9993", "line2": "2 30295  98.5074  20.4020 0094212  49.0333  13.2626 14.25053067983410"}}, "geometry": {"type": "Point", "coordinates": [17.09444082285974, 28.506376763568536]}}, {"type": "Feature", "properties": {"norad_id": 30297, "name": "FENGYUN 1C DEB", "group": "fengyun-1c-debris", "lat": -5.935874112868306, "lon": 130.35170144607196, "alt_km": 895.7307013611808, "timestamp": "2025-12-25T16:53:14.938752+00:00", "meta": {"OBJECT_NAME": "FENGYUN 1C DEB", "OBJECT_ID": "1999-025ZJ", "EPOCH": "2025-12-24T20:02:02.711904", "MEAN_MOTION": 14.21935753, "ECCENTRICITY": 0.03796345, "INCLINATION": 98.8135, "RA_OF_ASC_NODE": 310.4056, "ARG_OF_PERICENTER": 80.753, "MEAN_ANOMALY": 335.6173, "EPHEMERIS_TYPE": 0, "CLASSIFICATION_TYPE": "U", "NORAD_CAT_ID": 30297, "ELEMENT_SET_NO": 999, "REV_AT_EPOCH": 95324, "BSTAR": 0.0016226908, "MEAN_MOTION_DOT": 7.471e-05, "MEAN_MOTION_DDOT": 0}, "tle": {"line1": "1 30297U 99025ZJ  25358.83475361  .00007471  00000+0  16227-2 0  9994", "line2": "2 30297  98.8135 310.4056 0379634  80.7530 335.6173 14.21935753953242"}}, "geometry": {"type": "Point", "coordinates": [130.35170144607196, -5.935874112868306]}}, {"type": "Feature", "properties": {"norad_id": 30298, "name": "FENGYUN 1C DEB", "group": "fengyun-1c-debris", "lat": 21.197830959019864, "lon": -85.61352691071828, "alt_km": 811.4450707411179, "timestamp": "2025-12-25T16:53:14.938763+00:00", "meta": {"OBJECT_NAME": "FENGYUN 1C DEB", "OBJECT_ID": "1999-025ZK", "EPOCH": "2025-12-25T04:35:08.511072", "MEAN_MOTION": 14.2002851, "ECCENTRICITY": 0.0047283, "INCLINATION": 99.0007, "RA_OF_ASC_NODE": 90.3411, "ARG_OF_PERICENTER": 93.1611, "MEAN_ANOMALY": 325.888, "EPHEMERIS_TYPE": 0, "CLASSIFICATION_TYPE": "U", "NORAD_CAT_ID": 30298, "ELEMENT_SET_NO": 999, "REV_AT_EPOCH": 97011, "BSTAR": 0.0018783509, "MEAN_MOTION_DOT": 3.998e-05, "MEAN_MOTION_DDOT": 0}, "tle": {"line1": "1 30298U 99025ZK  25359.19107073  .00003998  00000+0  18784-2 0  9997", "line2": "2 30298  99.0007  90.3411 0047283  93.1611 325.8880 14.20028510970117"}}, "geometry": {"type": "Point", "coordinates": [-85.61352691071828, 21.197830959019864]}}, {"type": "Feature", "properties": {"norad_id": 30299, "name": "FENGYUN 1C DEB", "group": "fengyun-1c-debris", "lat": 11.495950407477666, "lon": -106.10931795896953, "alt_km": 939.5586146108762, "timestamp": "2025-12-25T16:53:14.938773+00:00", "meta": {"OBJECT_NAME": "FENGYUN 1C DEB", "OBJECT_ID": "1999-025ZL", "EPOCH": "2025-12-23T11:18:11.262816", "MEAN_MOTION": 14.07797987, "ECCENTRICITY": 0.01031259, "INCLINATION": 99.093, "RA_OF_ASC_NODE": 69.7764, "ARG_OF_PERICENTER": 337.5048, "MEAN_ANOMALY": 41.8846, "EPHEMERIS_TYPE": 0, "CLASSIFICATION_TYPE": "U", "NORAD_CAT_ID": 30299, "ELEMENT_SET_NO": 999, "REV_AT_EPOCH": 96441, "BSTAR": 0.0013100983, "MEAN_MOTION_DOT": 2.284e-05, "MEAN_MOTION_DDOT": 0}, "tle": {"line1": "1 30299U 99025ZL  25357.47096369  .00002284  00000+0  13101-2 0  9997", "line2": "2 30299  99.0930  69.7764 0103125 337.5048  41.8846 14.07797987964410"}}, "geometry": {"type": "Point", "coordinates": [-106.10931795896953, 11.495950407477666]}}, {"type": "Feature", "properties": {"norad_id": 30300, "name": "FENGYUN 1C DEB", "group": "fengyun-1c-debris", "lat": 27.87484231725904, "lon": -105.69868211130985, "alt_km": 814.39028358817, "timestamp": "2025-12-25T16:53:14.938783+00:00", "meta": {"OBJECT_NAME": "FENGYUN 1C DEB", "OBJECT_ID": "1999-025ZM", "EPOCH": "2025-12-22T16:31:21.679104", "MEAN_MOTION": 14.26932196, "ECCENTRICITY": 0.00761124, "INCLINATION": 99.04, "RA_OF_ASC_NODE": 66.3568, "ARG_OF_PERICENTER": 265.3319, "MEAN_ANOMALY": 246.7293, "EPHEMERIS_TYPE": 0, "CLASSIFICATION_TYPE": "U", "NORAD_CAT_ID": 30300, "ELEMENT_SET_NO": 999, "REV_AT_EPOCH": 97126, "BSTAR": 0.0021539123, "MEAN_MOTION_DOT": 5.352e-05, "MEAN_MOTION_DDOT": 0}, "tle": {"line1": "1 30300U 99025ZM  25356.68844536  .00005352  00000+0  21539-2 0  9992", "line2": "2 30300  99.0400  66.3568 0076112 265.3319 246.7293 14.26932196971261"}}, "geometry": {"type": "Point", "coordinates": [-105.69868211130985, 27.87484231725904]}}, {"type": "Feature", "properties": {"norad_id": 30301, "name": "FENGYUN 1C DEB", "group": "fengyun-1c-debris", "lat": 79.17245925299882, "lon": 23.823598483136514, "alt_km": 751.2125225608133, "timestamp": "2025-12-25T16:53:14.938794+00:00", "meta": {"OBJECT_NAME": "FENGYUN 1C DEB", "OBJECT_ID": "1999-025ZN", "EPOCH": "2025-12-25T03:28:42.426336", "MEAN_MOTION": 14.53401933, "ECCENTRICITY": 0.00693099, "INCLINATION": 98.6349, "RA_OF_ASC_NODE": 150.6381, "ARG_OF_PERICENTER": 252.2085, "MEAN_ANOMALY": 163.052, "EPHEMERIS_TYPE": 0, "CLASSIFICATION_TYPE": "U", "NORAD_CAT_ID": 30301, "ELEMENT_SET_NO": 999, "REV_AT_EPOCH": 97397, "BSTAR": 0.0048942674, "MEAN_MOTION_DOT": 0.00021035, "MEAN_MOTION_DDOT": 0}, "tle": {"line1": "1 30301U 99025ZN  25359.14493549  .00021035  00000+0  48943-2 0  9995", "line2": "2 30301  98.6349 150.6381 0069309 252.2085 163.0520 14.53401933973978"}}, "geometry": {"type": "Point", "coordinates": [23.823598483136514, 79.17245925299882]}}, {"type": "Feature", "properties": {"norad_id": 30302, "name": "FENGYUN 1C DEB", "group": "fengyun-1c-debris", "lat": 55.283380631526526, "lon": 99.37271960652097, "alt_km": 787.9590232165783, "timestamp": "2025-12-25T16:53:14.938811+00:00", "meta": {"OBJECT_NAME": "FENGYUN 1C DEB", "OBJECT_ID": "1999-025ZP", "EPOCH": "2025-12-25T04:24:59.157792", "MEAN_MOTION": 14.12899756, "ECCENTRICITY": 0.01059614, "INCLINATION": 98.5532, "RA_OF_ASC_NODE": 266.3311, "ARG_OF_PERICENTER": 81.98, "MEAN_ANOMALY": 279.338, "EPHEMERIS_TYPE": 0, "CLASSIFICATION_TYPE": "U", "NORAD_CAT_ID": 30302, "ELEMENT_SET_NO": 999, "REV_AT_EPOCH": 96219, "BSTAR": 0.0023039499, "MEAN_MOTION_DOT": 4.484e-05, "MEAN_MOTION_DDOT": 0}, "tle": {"line1": "1 30302U 99025ZP  25359.18401803  .00004484  00000+0  23039-2 0  9990", "line2": "2 30302  98.5532 266.3311 0105961  81.9800 279.3380 14.12899756962193"}}, "geometry": {"type": "Point", "coordinates": [99.37271960652097, 55.283380631526526]}}, {"type": "Feature", "properties": {"norad_id": 30303, "name": "FENGYUN 1C DEB", "group": "fengyun-1c-debris", "lat": -42.88899190200281, "lon": 85.86507376859741, "alt_km": 793.5759181132516, "timestamp": "2025-12-25T16:53:14.938821+00:00", "meta": {"OBJECT_NAME": "FENGYUN 1C DEB", "OBJECT_ID": "1999-025ZQ", "EPOCH": "2025-12-24T15:49:52.260960", "MEAN_MOTION": 14.25958002, "ECCENTRICITY": 0.00775511, "INCLINATION": 99.0184, "RA_OF_ASC_NODE": 76.3076, "ARG_OF_PERICENTER": 248.2307, "MEAN_ANOMALY": 111.0606, "EPHEMERIS_TYPE": 0, "CLASSIFICATION_TYPE": "U", "NORAD_CAT_ID": 30303, "ELEMENT_SET_NO": 999, "REV_AT_EPOCH": 97205, "BSTAR": 0.0025771862, "MEAN_MOTION_DOT": 6.3e-05, "MEAN_MOTION_DDOT": 0}, "tle": {"line1": "1 30303U 99025ZQ  25358.65963265  .00006300  00000+0  25772-2 0  9992", "line2": "2 30303  99.0184  76.3076 0077551 248.2307 111.0606 14.25958002972056"}}, "geometry": {"type": "Point", "coordinates": [85.86507376859741, -42.88899190200281]}}, {"type": "Feature", "properties": {"norad_id": 30304, "name": "FENGYUN 1C DEB", "group": "fengyun-1c-debris", "lat": -10.37789116393281, "lon": 73.97307325692005, "alt_km": 795.5990512283006, "timestamp": "2025-12-25T16:53:14.938831+00:00", "meta": {"OBJECT_NAME": "FENGYUN 1C DEB", "OBJECT_ID": "1999-025ZR", "EPOCH": "2025-12-23T15:44:28.497696", "MEAN_MOTION": 14.15546458, "ECCENTRICITY": 0.00731313, "INCLINATION": 99.0323, "RA_OF_ASC_NODE": 70.2297, "ARG_OF_PERICENTER": 17.518, "MEAN_ANOMALY": 342.8491, "EPHEMERIS_TYPE": 0, "CLASSIFICATION_TYPE": "U", "NORAD_CAT_ID": 30304, "ELEMENT_SET_NO": 999, "REV_AT_EPOCH": 96973, "BSTAR": 0.0012465796, "MEAN_MOTION_DOT": 2.456e-05, "MEAN_MOTION_DDOT": 0}, "tle": {"line1": "1 30304U 99025ZR  25357.65588539  .00002456  00000+0  12466-2 0  9993", "line2": "2 30304  99.0323  70.2297 0073131  17.5180 342.8491 14.15546458969730"}}, "geometry": {"type": "Point", "coordinates": [73.97307325692005, -10.37789116393281]}}, {"type": "Feature", "properties": {"norad_id": 30305, "name": "FENGYUN 1C DEB", "group": "fengyun-1c-debris", "lat": 17.9531130182796, "lon": -64.67329846701085, "alt_km": 902.7514388588206, "timestamp": "2025-12-25T16:53:14.938841+00:00", "meta": {"OBJECT_NAME": "FENGYUN 1C DEB", "OBJECT_ID": "1999-025ZS", "EPOCH": "2025-12-24T19:56:10.015008", "MEAN_MOTION": 13.6023718, "ECCENTRICITY": 0.02658599, "INCLINATION": 98.5889, "RA_OF_ASC_NODE": 297.366, "ARG_OF_PERICENTER": 69.5269, "MEAN_ANOMALY": 358.4725, "EPHEMERIS_TYPE": 0, "CLASSIFICATION_TYPE": "U", "NORAD_CAT_ID": 30305, "ELEMENT_SET_NO": 999, "REV_AT_EPOCH": 93938, "BSTAR": 0.00034206842, "MEAN_MOTION_DOT": 2.89e-06, "MEAN_MOTION_DDOT": 0}, "tle": {"line1": "1 30305U 99025ZS  25358.83067147  .00000289  00000+0  34207-3 0  9992", "line2": "2 30305  98.5889 297.3660 0265859  69.5269 358.4725 13.60237180939382"}}, "geometry": {"type": "Point", "coordinates": [-64.67329846701085, 17.9531130182796]}}]}